OBJECT_NAME,OBJECT_ID,EPOCH,MEAN_MOTION,ECCENTRICITY,INCLINATION,RA_OF_ASC_NODE,ARG_OF_PERICENTER,MEAN_ANOMALY,EPHEMERIS_TYPE,CLASSIFICATION_TYPE,NORAD_CAT_ID,ELEMENT_SET_NO,REV_AT_EPOCH,BSTAR,MEAN_MOTION_DOT,MEAN_MOTION_DDOT
CYGFM01,2016-078D,2024-07-07T07:56:07.512864,15.27239610,.0010564,34.9454,177.3810,3.1066,356.9713,0,U,41887,999,41909,.29214E-3,.7979E-4,0
CYGFM08,2016-078E,2024-07-07T06:29:43.375488,15.28159565,.0011413,34.9465,165.7523,27.3092,332.8221,0,U,41888,999,41926,.30275E-3,.851E-4,0
CYGFM07,2016-078G,2024-07-07T21:31:27.641280,15.28491727,.000775,34.9471,153.1708,41.4389,318.6913,0,U,41890,999,41950,.32942E-3,.935E-4,0
CYGFM03,2016-078H,2024-07-07T06:42:52.147872,15.28394962,.0008742,34.9492,158.2978,20.5662,339.5405,0,U,41891,999,41924,.30825E-3,.8722E-4,0
FENGYUN 3D,2017-072A,2024-07-07T23:03:42.343200,14.19367084,.0000476,98.9115,144.7387,314.1668,45.9468,0,U,43010,999,34436,.97093E-4,.159E-5,0
NOAA 20 (JPSS-1),2017-073A,2024-07-07T22:09:28.819872,14.19540302,.0001813,98.7064,127.4982,126.3163,233.8180,0,U,43013,999,34384,.80292E-4,.126E-5,0
GOES 17,2018-022A,2024-07-07T16:08:01.472928,1.00270723,.0000858,0.0077,151.1919,7.2601,264.9484,0,U,43226,999,2332,0,-.94E-6,0
FENGYUN 2H,2018-050A,2024-07-07T22:22:57.865152,1.00267963,.0001568,1.1958,87.1386,52.5195,201.4696,0,U,43491,999,2240,0,-.129E-5,0
METOP-C,2018-087A,2024-07-08T04:30:05.330880,14.21486052,.0002642,98.7225,249.2180,53.2515,306.8904,0,U,43689,999,29410,.10697E-3,.19E-5,0
GEO-KOMPSAT-2A,2018-100A,2024-07-08T03:52:42.924288,1.00271659,.0002057,0.0374,127.6162,329.3948,16.0303,0,U,43823,999,2055,0,-.347E-5,0
METEOR-M2 2,2019-038A,2024-07-08T03:51:53.423136,14.23899573,.0000145,98.8277,159.4684,221.8030,138.3137,0,U,44387,999,26037,.47112E-4,.63E-6,0
ARKTIKA-M 1,2021-016A,2024-07-07T04:34:38.048160,2.00606285,.6948546,63.1384,149.4796,268.6622,17.8840,0,U,47719,999,2454,0,.98E-6,0
FENGYUN 3E,2021-062A,2024-07-08T03:17:39.964704,14.19762842,.0001493,98.7320,191.1349,17.6667,342.4560,0,U,49008,999,15596,.3755E-4,.36E-6,0
GOES 18,2022-021A,2024-07-07T15:58:45.084576,1.00273084,.0000257,0.0167,209.8791,306.5814,232.3208,0,U,51850,999,869,0,.93E-6,0
NOAA 21 (JPSS-2),2022-150A,2024-07-07T09:28:51.016224,14.19534875,.0001961,98.7518,127.0525,85.7240,274.4160,0,U,54234,999,8584,.70405E-4,.104E-5,0
METEOSAT-12 (MTG-I1),2022-170C,2024-07-07T20:03:51.455808,1.00269067,.0001923,0.5246,41.2375,64.4042,121.1840,0,U,54743,999,585,0,-.11E-6,0
TIANMU-1 03,2023-039A,2024-07-08T02:03:53.630496,15.22936875,.0006297,97.4708,340.5842,105.6369,254.5563,0,U,55973,999,7203,.36645E-3,.8537E-4,0
TIANMU-1 04,2023-039B,2024-07-08T03:13:30.968544,15.23040931,.0007405,97.4630,340.1733,102.4816,257.7249,0,U,55974,999,7203,.33951E-3,.793E-4,0
TIANMU-1 05,2023-039C,2024-07-08T02:51:06.863616,15.22936659,.000584,97.4679,340.4966,120.2542,239.9273,0,U,55975,999,7202,.35961E-3,.8376E-4,0
TIANMU-1 06,2023-039D,2024-07-08T00:50:29.115744,15.23145904,.0006385,97.4692,340.5387,119.2715,240.9161,0,U,55976,999,7201,.37199E-3,.8721E-4,0
METEOR-M2 3,2023-091A,2024-07-08T01:20:11.890752,14.23903109,.0005075,98.7117,244.5413,75.2276,284.9465,0,U,57166,999,5359,.40732E-4,.49E-6,0
TIANMU-1 07,2023-101A,2024-07-07T20:52:03.254304,15.17433972,.0006709,97.3617,246.4443,113.1406,247.0535,0,U,57399,999,5356,.27197E-3,.5378E-4,0
TIANMU-1 08,2023-101B,2024-07-08T00:52:36.433920,15.17448144,.0008894,97.3606,246.4770,117.9910,242.2224,0,U,57400,999,5358,.31173E-3,.618E-4,0
TIANMU-1 09,2023-101C,2024-07-08T02:03:15.548832,15.17437849,.0009363,97.3562,246.3546,114.3043,245.9170,0,U,57401,999,5359,.3016E-3,.5976E-4,0
TIANMU-1 10,2023-101D,2024-07-07T22:05:01.998528,15.17415585,.0011485,97.3642,246.4903,114.1057,246.1380,0,U,57402,999,5356,.31589E-3,.6262E-4,0
FENGYUN 3F,2023-111A,2024-07-08T03:51:55.614240,14.19834385,.0001683,98.7691,259.0989,68.1571,291.9784,0,U,57490,999,4824,.8647E-4,.139E-5,0
ARKTIKA-M 2,2023-198A,2024-07-03T10:24:24.468192,2.00613432,.6977751,63.2509,233.6903,269.8418,17.2775,0,U,58584,999,400,0,.152E-5,0
TIANMU-1 11,2023-205A,2024-07-08T02:51:51.928992,15.15365857,.0010346,97.4016,214.6708,340.6971,19.3868,0,U,58645,999,2968,.26207E-3,.4885E-4,0
TIANMU-1 12,2023-205B,2024-07-07T20:53:05.961696,15.15408716,.0008682,97.4003,214.3565,334.4796,25.6006,0,U,58646,999,2963,.30159E-3,.5636E-4,0
TIANMU-1 13,2023-205C,2024-07-08T00:51:07.567200,15.15329640,.0008148,97.4030,214.5184,314.9883,45.0688,0,U,58647,999,2965,.27936E-3,.5204E-4,0
TIANMU-1 14,2023-205D,2024-07-08T03:38:09.618144,15.15339220,.0008928,97.3956,214.4757,317.8776,42.1769,0,U,58648,999,2967,.30927E-3,.5771E-4,0
