METOP-C                 
1 43689U 18087A   24190.18756170  .00000190  00000+0  10697-3 0  9990
2 43689  98.7225 249.2180 0002642  53.2515 306.8904 14.21486052294105
GOES 17                 
1 43226U 18022A   24189.67223927 -.00000094  00000+0  00000+0 0  9994
2 43226   0.0077 151.1919 0000858   7.2601 264.9484  1.00270723 23326
FENGYUN 2H              
1 43491U 18050A   24189.93261418 -.00000129  00000+0  00000+0 0  9994
2 43491   1.1958  87.1386 0001568  52.5195 201.4696  1.00267963 22407
GEO-KOMPSAT-2A          
1 43823U 18100A   24190.16160792 -.00000347  00000+0  00000+0 0  9991
2 43823   0.0374 127.6162 0002057 329.3948  16.0303  1.00271659 20559
GOES 18                 
1 51850U 22021A   24189.66579959  .00000093  00000+0  00000+0 0  9996
2 51850   0.0167 209.8791 0000257 306.5814 232.3208  1.00273084  8690
METEOSAT-12 (MTG-I1)    
1 54743U 22170C   24189.83601222 -.00000011  00000+0  00000+0 0  9994
2 54743   0.5246  41.2375 0001923  64.4042 121.1840  1.00269067  5855
METEOR-M2 2             
1 44387U 19038A   24190.16103499  .00000063  00000+0  47112-4 0  9993
2 44387  98.8277 159.4684 0000145 221.8030 138.3137 14.23899573260377
METEOR-M2 3             
1 57166U 23091A   24190.05569318  .00000049  00000+0  40732-4 0  9995
2 57166  98.7117 244.5413 0005075  75.2276 284.9465 14.23903109 53591
NOAA 20 (JPSS-1)        
1 43013U 17073A   24189.92325023  .00000126  00000+0  80292-4 0  9992
2 43013  98.7064 127.4982 0001813 126.3163 233.8180 14.19540302343841
CYGFM01                 
1 41887U 16078D   24189.33064251  .00007979  00000+0  29214-3 0  9990
2 41887  34.9454 177.3810 0010564   3.1066 356.9713 15.27239610419091
CYGFM08                 
1 41888U 16078E   24189.27064092  .00008510  00000+0  30275-3 0  9998
2 41888  34.9465 165.7523 0011413  27.3092 332.8221 15.28159565419264
CYGFM07                 
1 41890U 16078G   24189.89684770  .00009350  00000+0  32942-3 0  9996
2 41890  34.9471 153.1708 0007750  41.4389 318.6913 15.28491727419501
CYGFM03                 
1 41891U 16078H   24189.27977023  .00008722  00000+0  30825-3 0  9995
2 41891  34.9492 158.2978 0008742  20.5662 339.5405 15.28394962419246
FENGYUN 3D              
1 43010U 17072A   24189.96090675  .00000159  00000+0  97093-4 0  9997
2 43010  98.9115 144.7387 0000476 314.1668  45.9468 14.19367084344362
ARKTIKA-M 1             
1 47719U 21016A   24189.19071815  .00000098  00000+0  00000+0 0  9999
2 47719  63.1384 149.4796 6948546 268.6622  17.8840  2.00606285 24541
FENGYUN 3E              
1 49008U 21062A   24190.13726811  .00000036  00000+0  37550-4 0  9999
2 49008  98.7320 191.1349 0001493  17.6667 342.4560 14.19762842155964
NOAA 21 (JPSS-2)        
1 54234U 22150A   24189.39503491  .00000104  00000+0  70405-4 0  9990
2 54234  98.7518 127.0525 0001961  85.7240 274.4160 14.19534875 85849
TIANMU-1 03             
1 55973U 23039A   24190.08603739  .00008537  00000+0  36645-3 0  9997
2 55973  97.4708 340.5842 0006297 105.6369 254.5563 15.22936875 72036
TIANMU-1 04             
1 55974U 23039B   24190.13438621  .00007930  00000+0  33951-3 0  9993
2 55974  97.4630 340.1733 0007405 102.4816 257.7249 15.23040931 72036
TIANMU-1 05             
1 55975U 23039C   24190.11882944  .00008376  00000+0  35961-3 0  9991
2 55975  97.4679 340.4966 0005840 120.2542 239.9273 15.22936659 72024
TIANMU-1 06             
1 55976U 23039D   24190.03505921  .00008721  00000+0  37199-3 0  9999
2 55976  97.4692 340.5387 0006385 119.2715 240.9161 15.23145904 72016
TIANMU-1 07             
1 57399U 23101A   24189.86948211  .00005378  00000+0  27197-3 0  9994
2 57399  97.3617 246.4443 0006709 113.1406 247.0535 15.17433972 53560
TIANMU-1 08             
1 57400U 23101B   24190.03653280  .00006180  00000+0  31173-3 0  9998
2 57400  97.3606 246.4770 0008894 117.9910 242.2224 15.17448144 53584
TIANMU-1 09             
1 57401U 23101C   24190.08559663  .00005976  00000+0  30160-3 0  9991
2 57401  97.3562 246.3546 0009363 114.3043 245.9170 15.17437849 53597
TIANMU-1 10             
1 57402U 23101D   24189.92016202  .00006262  00000+0  31589-3 0  9995
2 57402  97.3642 246.4903 0011485 114.1057 246.1380 15.17415585 53562
FENGYUN 3F              
1 57490U 23111A   24190.16106035  .00000139  00000+0  86470-4 0  9992
2 57490  98.7691 259.0989 0001683  68.1571 291.9784 14.19834385 48249
ARKTIKA-M 2             
1 58584U 23198A   24185.43361653  .00000152  00000+0  00000+0 0  9990
2 58584  63.2509 233.6903 6977751 269.8418  17.2775  2.00613432  4007
TIANMU-1 11             
1 58645U 23205A   24190.11935103  .00004885  00000+0  26207-3 0  9993
2 58645  97.4016 214.6708 0010346 340.6971  19.3868 15.15365857 29685
TIANMU-1 12             
1 58646U 23205B   24189.87020789  .00005636  00000+0  30159-3 0  9996
2 58646  97.4003 214.3565 0008682 334.4796  25.6006 15.15408716 29637
TIANMU-1 13             
1 58647U 23205C   24190.03550425  .00005204  00000+0  27936-3 0  9992
2 58647  97.4030 214.5184 0008148 314.9883  45.0688 15.15329640 29656
TIANMU-1 14             
1 58648U 23205D   24190.15150021  .00005771  00000+0  30927-3 0  9997
2 58648  97.3956 214.4757 0008928 317.8776  42.1769 15.15339220 29672
